streetnum,streetname,city,province,postalcode
12208, boul René-Lévesque O, Montréal,QC,H3H1R6
27-50, boul Crémazie O, Montréal,QC,H2P1A2
7031, ch de la cote-Saint-Luc, Cote Saint-Luc,QC,H4V1J2
8130, boul Champlain, Lasalle,QC,H8P1B4
26, av Westminster N, Montréal-Ouest,QC,H4X1Z2
100-360, rue Saint-Jacques, Montréal,QC,H2Y1P6
6250, av Newman, Montréal,QC,H4E4K4
3131, boul de la cote-Vertu, Saint-Laurent,QC,H4R1Y8
800, boul Décarie, Saint-Laurent,QC,H4L3L5
3461, boul Gouin E, Montréal-Nord,QC,H1H1B2
555, boul Gouin O, Montréal,QC,H3L1K5
2376, rue Wellington, Montréal,QC,H3K1X6
8180, boul Champlain, Lasalle,QC,H8P1B4
100-300, rue Léo-Pariseau, Montréal,QC,H2X4B3
10611, boul Pie-IX, Montréal-Nord,QC,H1H4A3
325, rue Bridge, Montréal,QC,H3K2C7
7077, boul Newman, Lasalle,QC,H8N1X1
351, av Laurier O, Montréal,QC,H2V2K4
1165, rue Décarie, Saint-Laurent,QC,H4L3M8
265, rue Saint-Jacques, Montréal,QC,H2Y1M6
1801, av du Mont-Royal E, Montréal,QC,H2H1J2
4849, rue Sherbrooke O, Westmount,QC,H3Z1G6
1, Car Westmount, Westmount,QC,H3Z2P9
1475, rue de Sève, Montréal,QC,H4E2A8
10-2197, rue Sherbrooke E, Montréal,QC,H2K1C8
210-600, rue Jean-Talon E, Montréal,QC,H2R3A8
38-2101, av Dollard, Lasalle,QC,H8N1S2
7155, rue Jean-Talon E, Anjou,QC,H1M3A4
5373, boul Henri-Bourassa E, Montréal,QC,H1G2T1
12675, rue Sherbrooke E, Pointe-Aux-Trembles,QC,H1A3W7
1235, rue Notre-Dame O, Montréal,QC,H3C0B1
1, Car Westmount, Westmount,QC,H3Z2P9
1100, rue Sherbrooke O, Montréal,QC,H3A1G7
10611, boul Pie-IX, Montréal-Nord,QC,H1H4A3
5185, av du parc, Montréal,QC,H2V4G4
1002, rue Sherbrooke O, Montréal,QC,H3A3L6
8760, boul Langelier, Montréal,QC,H1P3C6
3461, boul Gouin E, Montréal,QC,H1H1B2
5800, boul Cavendish, Cote Saint-Luc,QC,H4W2T5
2055, rue University, Montréal,QC,H3A3H9
7400, boul Les Galeries d'Anjou, Montréal,QC,H1M3M2
2560, rue de Salaberry, Montréal,QC,H3M1L3
1127, rue Décarie, Saint-Laurent,QC,H4L3M8
7400, boul Les Galeries d'Anjou, Anjou,QC,H1M3M2
6680, boul Joseph-Renaud, Anjou,QC,H1K3V4
343, rue Chabanel O, Montréal,QC,H2N2G1
1000, av Bernard, Outremont,QC,H2V1T8
1326, av Greene, Westmount,QC,H3Z2B1
600, rue Jean-Talon E, Montréal,QC,H2R3A8
5094, rue Jean-Talon E, Montréal,QC,H1S1K7
5100, rue Sherbrooke E, Montréal,QC,H1V3R9
1100, rue Sherbrooke O, Montréal,QC,H3A1G7
1140, rue Sainte-Catherine O, Montréal,QC,H3B1H7
10611, boul Pie-IX, Montréal-Nord,QC,H1H4A3
6100, rue Sherbrooke O, Montréal,QC,H4A1Y3
5501, av Westminster, Montréal,QC,H4W2J2
3595, boul Saint-Laurent, Montréal,QC,H2X2T6
1801, av du Mont-Royal E, Montréal,QC,H2H1J2
5272, ch Reine Marie, Montréal,QC,H3W1X5
3828, boul de la Côte-Vertu, Montréal,QC,H4R1P8
2055, rue University, Montréal,QC,H3A3H9
600, rue Jean-Talon E, Montréal,QC,H2R3A8
7885, boul Décarie, Montréal,QC,H4P2H2
2157, rue Guy, Montréal,QC,H3H2L9
400-5, Place Ville-Marie, Montréal,QC,H3B5E7
1801, av du Mont-Royal E, Montréal,QC,H2H1J2
51, av du Mont-Royal O, Montréal,QC,H2T2S5
1100, rue Wellington, Montréal,QC,H3C0M5
200, boul René-Lévesque O, Montréal,QC,H2Z1X4
7155, rue Jean-Talon E, Anjou,QC,H1M3A4
400-5, Place Ville-Marie, Montréal,QC,H3B5E7
437, rue Saint-Jacques, Montréal,QC,H2Y1P4
4286, rue Jean-Talon E, Saint-Léonard,QC,H1S1J7
351, av Laurier O, Montréal,QC,H2V2K4
121-2313, rue Sainte-Catherine O, Montréal,QC,H3H1N2
5409, ch Queen-Mary, Montréal,QC,H3X1V1
6930, rue Saint-Hubert, Montréal,QC,H2S2M6
2380, ch Lucerne, Montréal,QC,H3R2J8
2835, av Van Horne, Montréal,QC,H3S1P6
1006, rue Sherbrooke O, Montréal,QC,H3A2S2
5500, av Westminster, Côte Saint-Luc,QC,H4W2J1
2001, av McGill Collège, Montréal,QC,H3A1G1
88, boul René-Lévesque O, Montréal,QC,H2Z1A2
7191, boul Newman, Lasalle,QC,H8N2K3
1298, av Van Horne, Outremont,QC,H2V1K6
1254, av Beaumont, Mount-Royal,QC,H3P3E5
40, Place du Commerce, Verdun,QC,H3E1J6
5800, boul Cavendish, Cote Saint-Luc,QC,H4W2T5
8760, boul Langelier, Saint-Léonard,QC,H1P3C6
4370, rue Wellington, Verdun,QC,H4G1W4
7083, boul Newman, Lasalle,QC,H8N1X1
5755, boul Cavendish, Côte-Saint-Luc,QC,H4W2X8
5500, av Royalmount, Mont-Royal,QC,H4P1H7
4002, rue Wellington, Verdun,QC,H4G1V3
4849, rue Sherbrooke O, Westmount,QC,H3Z1G6
6680, boul Joseph-Renaud, Anjou,QC,H1K3V4
1500, rue University, Montréal,QC,H3A3S7
4977, rue Jean-Talon O, Montréal,QC,H4P1W7
977, rue Sainte-Catherine O, Montréal,QC,H3B4W3
8999, boul de l'Acadie, Montréal,QC,H4N3K1
6797, boul Newman, Lasalle,QC,H8N3E4
6850, rue Jean-Talon E, Saint-Léonard,QC,H1S1N1
1100, rue Wellington, Montréal,QC,H3C0M5
6455, rue Jean-Talon E, St Léonard,QC,H1S3E8
1800, av McGill Collège, Montréal,QC,H3A3J6
5100, rue Sherbrooke E, Montréal,QC,H1V3R9
4149, rue Jean-Talon E, Montréal,QC,H1S1J6
261, boul De La Côte-Vertu, Saint-Laurent,QC,H4N1C8
7999, boul Les Galeries d'Anjou, Anjou,QC,H1M1W9
2005, rue Peel, Montreal,H3A,1T7Get
6025, boul Henri-Bourassa E, Montréal-Nord,QC,H1G2V2
4854, rue Sherbrooke O, Westmount,QC,H3Z1H1
223, Fleury O, Montréal,QC,H3L1T8
6405, rue Beaubien E, Montréal,QC,H1M1B1
4111, rue Jean-Talon E, Montréal,QC,H1S1J5
8955, avenue André-Grasset, Montréal,QC,H2M2E9
2100, av du Mont-Royal E, Montréal,QC,H2H1J8
7915, boulevard Saint-Laurent, Montréal,QC,H2R1X2
451, boul Henri-Bourassa E, Montréal,QC,H3L1C5
4390, rue Beaubien E, Montréal,QC,H1T1S9
5498, boul Henri-Bourassa E, Montréal-Nord,QC,H1G2T2
1695, rue Bélanger E, Montréal,QC,H2G1B1
185, ch Côte-Vertu, Saint-Laurent,QC,H4N1C6
8599, boul Maurice-Duplessis, Montréal,QC,H1E4H7
1350, rue Gilford, Montréal,QC,H2J1R7
5353, ch Queen-Mary, Montréal,QC,H3X1V2
8955, av André-Grasset, Montréal,QC,H2M2E9
27-600, rue de la Gauchetière O, Montréal,QC,H3B4L2
4014, rue Wellington, Verdun,QC,H4G1V3
2303, rue Beaubien E, Montréal,QC,H2G1N1
9700, 4E rue, Montréal,QC,H1C1T2
61, boul René-Lévesque O, Montréal,QC,H2Z1A3
740, boul de la Côte-Vertu, Saint-Laurent,QC,H4L1Y4
2612, boul Henri-Bourassa Est, Montréal,QC,H2B1V6
555, rue Chabanel O, Montréal,QC,H2N2H7
5469, ch Queen-Mary, Montréal,QC,H3X1V4
3850, boul Saint-Laurent, Montréal,QC,H2W1X6
5469, ch Queen-Mary, Montréal,QC,H3X1V4
1246, av Greene, Westmount,QC,H3Z2A3
340-895, rue de la Gauchetière O, Montréal,QC,H3B4G1
8955, av André-Grasset, Montréal,QC,H2M2E9
5281, rue Jean-Talon E, Saint-Léonard,QC,H1S1L2
4817, rue Sherbrooke O, Westmount,QC,H3Z1G6
7171, rue Jean-Talon E, Anjou,QC,H1M3N2
5100, rue Beaubien E, Montréal,QC,H1T1V7
4506, rue Saint-Denis, Montréal,QC,H2J2L3
1285, av Bernard O, Outremont,QC,H2V1V8
1401, rue de Bleury, Montréal,QC,H3A2H6
6420, rue St-Hubert, Montréal,QC,H2S2M2
2295, rue Jean-Talon E, Montréal,QC,H2E1V6
855, rue Jean-Talon O, Montréal,QC,H3N1S5
48, Place du Commerce, Verdun,QC,H3E0A1
12675, rue Sherbrooke E, Montréal,QC,H1A3W7
9540, rue Hochelaga, Montréal,QC,H1L2R2
1205, rue Sainte-Catherine O, Montréal,QC,H3B1K7
2775, rue des Ormeaux, Montréal,QC,H1L4X6
6595, av Somerled, Montréal,QC,H4V1T1
7189, boul Newman, Lasalle,QC,H8N2K3
6430, rue Beaubien Est, Montréal,QC,H1M1A9
8450, boul Newman, Lasalle,QC,H8N1Y5
7005, ch Kildaré, Côte Saint-Luc,QC,H4W1C1
100-3333, chemin Queen-Mary, Montréal,QC,H3V1A2
435, ave du Mont-Royal Est, Montréal,QC,H2J1W2
6000, boul Monk, Montréal,QC,H4E3H6
Banks , Health, Travel,&,LifeInsurance
6100, av du Boise, Montréal,QC,H3S2W1
5036, boul Saint-Laurent, Montréal,QC,H2T1R7
600, rue de la Gauchetière O, Montréal,QC,H3B4L2
3871, rue Ontario E, Montréal,QC,H1W1S7
1140, rue Sherbrooke O, Montréal,QC,H3A2S1
9105, rue Sherbrooke E, Montréal,QC,H1L1E4
5875, av Monkland, Montréal,QC,H4A1G5
10650, boul Pie-IX, Montréal-Nord,QC,H1H4A6
46-1250, boul René-Lévesque O, Montréal,QC,H3B4W8
5755, boul Cavendish, Cote Saint-Luc,QC,H4W2X8
2030, boul Pie-IX, Montréal,QC,H1V2C8
1280, boul Marcel-Laurin, Montréal,QC,H4R1J9
1795, rue Fleury E, Montréal,QC,H2C1T3
500, Place d'Armes, Montréal,QC,H2Y2W3
8275, boul Maurice Duplessis, Montréal,QC,H1E3B5
1685, rue Rachel Est, Montréal,QC,H2J2K6
3785, rue Ontario E, Montréal,QC,H1W1S3
3515, boul Lasalle, Verdun,QC,H4G1Z4
8730, boul Provencher, Saint-Léonard,QC,H1R3N7
6425, boul Léger, Montréal-Nord,QC,H1G6J7
7275, rue Sherbrooke E, Montréal,QC,H1N1E9
3211, rue Rachel E, Montréal,QC,H1W1A3
26, av Westminster N, Montréal,QC,H4X1Z2
1319, ch Canora, Mont-Royal,QC,H3P2J5
3501, rue St-Hubert, Montréal,QC,H2L3Z8
1050, rue Fleury E, Montréal,QC,H2C1P7
1200-2000, rue Mansfield, Montréal,QC,H3A3N8
801, rue St-Catherine E, Montréal,QC,H2L4M4
249, boul de la Côte-Vertu, Saint-Laurent,QC,H4N1C8
6999, boul Saint-Laurent, Montréal,QC,H2S3E1
7515, boul Maurice-Duplessis, Montréal,QC,H1E7N2
8091, rue Saint-Denis, Montréal,QC,H2R2G2
8300, Boulevard Maurice-Duplessis, Montréal,QC,H1E3A3
249, boul de la Côte-Vertu, Saint-Laurent,QC,H4N1C8
6000, boul Monk, Montréal,QC,H4E3H6
170, rue St-Zotique E, Montréal,QC,H2S1K8
1299, av Greene, Westmount,QC,H3Z2A6
9150, boul de l'Acadie, Montréal,QC,H4N2T2
8449, boul Newman, Lasalle,QC,H8N2Y7
5990, boul Gouin O, Montréal,QC,H4J1E6
8000, boul Champlain, Lasalle,QC,H8P1B3
109, ch de la Pointe-Nord, Verdun,QC,H3E0B5
2355, rue de Salaberry, Montréal,QC,H3M1L1
12675, rue Sherbrooke E, Pointe-Aux-Trembles,QC,H1A3W7
10212, boul St-Michel, Montréal-Nord,QC,H1H5H1
5500, av Westminster, Côte Saint-Luc,QC,H4W2J1
1101, av du Mont-Royal E, Montréal,QC,H2J1X9
10800, av Millen, Montréal,QC,H2C0A3
425, ave Viger Ouest, Montréal,QC,H2Z1X2
2585, rue Ontario E, Montréal,QC,H2K1W6
8127, boulevard Saint-Michel, Montréal,QC,H1Z3E3
9235, boul Lacordaire, Saint-Léonard,QC,H1R2B6
5002, rue Sherbrooke O, Montréal,QC,H3Z1H4
1635, boul Gouin E, Montréal,QC,H2C1C2
6850, rue Jean-Talon E, Saint-Léonard,QC,H1S1N1
3611, rue Notre-Dame O, Montréal,QC,H4C1P6
8020, boul Langelier, Saint-Léonard,QC,H1P3K1
6951, ch de la Côte-Saint-Luc, Côte Saint-Luc,QC,H4V1J2
5674, rue Sherbrooke Est, Montréal,QC,H1N1A1
895, rue de la Gauchetière E, Montréal,QC,H2L2N3
3131, boul de la Côte-Vertu, Saint-Laurent,QC,H4R1Y8
6800, boul Monk, Montréal,QC,H4E3J3
1427, boul Graham, Mont-Royal,QC,H3P3M9
1685, rue Rachel E, Montréal,QC,H2J2K6
500, Place d'Armes, Montréal,QC,H2Y2W2
425, Viger O, Montréal,QC,H2Z1N7
955, boul de Maisonneuve O, Montréal,QC,H3A1M4
8940, rue de Reims, Montréal,QC,H2N1T3
4149, rue Jean-Talon E, Saint-Léonard,QC,H1S1J6
1400, boul René-Lévesque Est, Montréal,QC,H2L2M2
1350, boul René-Lévesque O, Montréal,QC,H3G2W2
6955, rue Jean-Talon E, Montréal,QC,H1S1N2
5070, av du parc, Montréal,QC,H2V4G1
4570, rue Jarry E, Saint-Léonard,QC,H1R1X3
5, Complexe Desjardins, Montréal,QC,H5B1B4
610, rue Saint-Jacques, Montréal,QC,H3C1C7
5355, ch de la Côte-des-Neiges, Montréal,QC,H3T1Y4
1201, rue Fleury E, Montréal,QC,H2C1R2
8450, boul Lacordaire, Saint-Léonard,QC,H1R2A5
1662, rue Ste-Catherine Est, Montréal,QC,H2L2J4
7969, rue Hochelaga, Montréal,QC,H1L2K9
6406, rue Sherbrooke E, Montréal,QC,H1N3P6
46-1250, boul René-Lévesque O, Montréal,QC,H3B4W8
6010, rue Jean-Talon E, Saint-Léonard,QC,H1S3A9
555, boul Crémazie E, Montréal,QC,H2M1L8
505, boul Gouin O, Montréal,QC,H3L3W7
7500, boul Les Galeries d'Anjou, Anjou,QC,H1M3M4
5880, rue Sherbrooke E, Montréal,QC,H1N1B5
5875, av Monkland, Montréal,QC,H4A1G5
6455, rue Jean-Talon E, Saint-Léonard,QC,H1S3E8
425, avenue Viger Ouest, Montréal,QC,H2Z1X2
5501, av de Monkland, Montréal,QC,H4A1C8
4545, Notre-Dame Ouest, Montréal,QC,H4C1S3
2890, rue Masson, Montréal,QC,H1Y1W9
6875, boul St-Laurent, Montréal,QC,H2S3C9
6995, boul Saint-Laurent, Montréal,QC,H2S3E1
8050, boulevard Lacordaire, Saint-Léonard,QC,H1R2A2
8127, boulevard Saint-Michel, Montréal,QC,H1Z3E3
8995, boul Saint-Michel, Montréal,QC,H1Z3G3
1130, boul Marcel-Laurin, Saint-Laurent,QC,H4R1J7
1319, ch Canora, Mont-Royal,QC,H3P2J5
4983, rue de Charleroi, Montréal-Nord,QC,H1G2Z2
4545, av Pierre-de Coubertin, Montréal,QC,H1V0B2
1900, av McGill Collège, Montréal,QC,H3A3L2
730, boul de la Côte-Vertu O CP 9000, Dorval,QC,H4Y1C2
7450, boul Les Galeries d'Anjou, Anjou,QC,H1M3M3
325, chemin de la Pointe-Sud, Verdun,QC,H3E0B1
555, rue McArthur CP 1551, Saint-Laurent,QC,H4T1T4
4977, rue Jean-Talon O, Montréal,QC,H4P1W7
2140, avenue Dollard, Lasalle,QC,H8N1S6
7400, boul des Galeries d'Anjou, Anjou,QC,H1M3M2
5200, rue de Charleroi, Montréal-Nord,QC,H1G3A1
5145, ch de la Côte-des-Neiges, Montréal,QC,H3T1X9
2163, rue Sainte-Catherine O, Montréal,QC,H3H1M9
38, Place du Commerce, Verdun,QC,H3E1T8
1845, av O'Brien, Saint-Laurent,QC,H4L3W6
1830-2305, ch Rockland, Montréal,QC,H3P3E9
2828, rue de Salaberry, Montréal,QC,H3M1L3
595, boul Henri-Bourassa E, Montréal,QC,H2C0A4
B1-7373, boul Langelier, Saint-Léonard,QC,H1S1V7
6801, boulevard Gouin Est, Montréal-Nord,QC,H1G6L2
6700, boulevard Gouin Est, Montréal-Nord,QC,H1G6N6
5640, boulevard Léger, Montréal-Nord,QC,H1G1K5
8000, boul Décarie, Montréal,QC,H4P2S4
5070, rue Jean-Talon E, Saint-Léonard,QC,H1S1K6
1289, av Greene, Westmount,QC,H3Z2A4
1825, av O'Brien, Saint-Laurent,QC,H4L3W6
1555, av Van Horne, Outremont,QC,H2V1L6
1355, rue Saint-Jacques, Montréal,QC,H3C4K2
3590, boul Saint-Laurent, Montréal,QC,H2X2V3
1605, rue Fleury E, Montréal,QC,H2C1S9
1601, rue Sainte-Catherine O, Montréal,QC,H3H1L8
51, av du Mont-Royal O, Montréal,QC,H2T2S5
1460, rue de l'Église, Saint-Laurent,QC,H4L2H6
8050, boul Lacordaire, Saint-Léonard,QC,H1R2A2
11000, boulevard Saint-Vital, Montréal-Nord,QC,H1H4T6
5790, av de Monkland, Montréal,QC,H4A1E9
50, av Labatt, Lasalle,QC,H8R3E7
300, rue Léo-Pariseau, Montréal,QC,H2X4B3
7077, boul Newman, Lasalle,QC,H8N1X1
1700, rue Saint-Catherine E, Montréal,QC,H2L2J4
525, rue Jean-Talon O, Montréal,QC,H3N1R6
7515, boul Maurice Duplessis, Montréal,QC,H1E7N2
5500, av Westminster, Côte Saint-Luc,QC,H4W2J1
5290, rue de Verdun, Verdun,QC,H4H1K1
8200, boul Décarie, Montréal,QC,H4P2P5
D375-7999, boul Les Galeries d'Anjou, Montréal,QC,H1M1W9
3131, boul de la Côte-Vertu, Saint-Laurent,QC,H4R1Y8
200-1130, rue Sherbrooke O, Montréal,QC,H3A2M9
6100, rue Sherbrooke O, Montréal,QC,H4A1Y3
5409, ch Queen-Mary, Montréal,QC,H3X1V1
2065, rue Saint-Louis, Saint-Laurent,QC,H4M1P1
5002, rue Sherbrooke O, Westmount,QC,H3Z1H4
5800, boul Cavendish, Montréal,QC,H4W2T5
800, rue du Square-Victoria, Montréal,QC,H4Z1A5
6921, boulevard Les Galeries d'Anjou, Anjou,QC,H1M0A1
1155, av Bernard, Outremont,QC,H2V1V5
102-13000, rue Sherbrooke E, Montréal,QC,H1A3W2
5790, boul des Grandes-Prairies, Saint-Léonard,QC,H1R1B5
5353, ch Queen-Mary, Montréal,QC,H3X1V2
7000, boulevard Joseph-Renaud, Anjou,QC,H1K3V5
630, boul René-Lévesque O, Montréal,QC,H3B1S6
3500, boulevard de la Côte Vertu CP 160, Saint-Laurent,QC,H4R1P8
1, carref Alexander-Graham-Bell, Verdun,QC,H3E3B3
4162, rue Wellington, Verdun,QC,H4G1V7
6168, boul Henri-Bourassa E, Montréal-Nord,QC,H1G5X3
7920, rue Sherbrooke E, Montréal,QC,H1L1A5
2959, rue Sherbrooke E, Montréal,QC,H1W1B2
9065, boul Maurice-Duplessis, Montréal,QC,H1E6M3
5501, av de Monkland, Montréal,QC,H4A1C8
6930, rue Saint-Hubert, Montréal,QC,H2S2M6
8940, boul Viau, Saint-Léonard,QC,H1R2V3
119, rue Saint-Jacques, Montréal,QC,H2Y1L6
6521, boul Décarie, Montréal,QC,H3W3E3
645, boul René-Lévesque O, Montréal,QC,H3B1S5
8450, boul Newman, Lasalle,QC,H8N1Y5
38, Place du Commerce, Verdun,QC,H3E1T8
999, boul de Maisonneuve O, Montréal,QC,H3A3L4
5900, ch de la Côte-des-Neiges, Montréal,QC,H3S1Z5
10-433, rue Chabanel O, Montréal,QC,H2N2J3
6505, av Somerled, Montréal,QC,H4V1S7
2001, rue University, Montréal,QC,H3A2A6
800, boul René-Lévesque O, Montréal,QC,H3B1X9
351, av Laurier O, Montréal,QC,H2V2K4
1127, rue Décarie, Saint-Laurent,QC,H4L3M8
3131, boul de la Côte-Vertu, Saint-Laurent,QC,H4R1Y8
2560, rue de Salaberry, Montréal,QC,H3M1L3
800, rue du Square Victoria, Montréal,QC,H4Z1A1
5060, boul Saint-Laurent, Montréal,QC,H2T1R7
5100, rue Sherbrooke E, Montréal,QC,H1V3R9
5094, rue Jean-Talon E, Montréal,QC,H1S1K7
150-14, place du Commerce, Verdun,QC,H3E1T5
1205, rue Sainte-Catherine O, Montréal,QC,H3B1K7
670, rue Sainte-Catherine O, Montréal,QC,H3B1C1
600, rue Cathcart, Montréal,QC,H3B1K8
1101, av du Mont-Royal E, Montréal,QC,H2J1X9
2100, rue du Centre, Montréal,QC,H3K1J4
1601, rue Sherbrooke O, Montréal,QC,H3H1E2
6700, rue Saint-Hubert, Montréal,QC,H2S2M6
1195, av Bernard, Outremont,QC,H2V1V5
8180, boulevard Champlain, Lasalle,QC,H8P1B4
2005, rue Peel, Montréal,QC,H3A1T7
3131, boul de la Côte-Vertu, Saint-Laurent,QC,H4R1Y8
1769, rue Fleury E, Montréal,QC,H2C1T3
6680, boul Joseph-Renaud, Anjou,QC,H1K3V4
2831, rue Masson, Montréal,QC,H1Y1W8
352, rue Chabanel O, Montréal,QC,H2N1G6
218-7275, rue Sherbrooke E, Montréal,QC,H1N1E9
3515, boulevard Lasalle, Verdun,QC,H4G1Z4
2856, rue De Salaberry, Montréal,QC,H3M1L3
6455, rue Jean-Talon E, Saint-Léonard,QC,H1S3E8
7160, avenue Bombardier, Anjou,QC,H1J2Z9
1805, rue Jean-Talon E, Montréal,QC,H2E1T4
4854, rue Sherbrooke O, Westmount,QC,H3Z1H1
5901, avenue Westminster, Côte Saint-Luc,QC,H4W2J9
2341, boul Alfred-Nobel, Ville Saint-Laurent,QC,H4S2B8
637, boul Décarie, Saint-Laurent,QC,H4L3L3
61, boul René-Lévesque O, Montréal,QC,H2Z1A3
520, rue Jean-Talon O, Montréal,QC,H3N1R5
1145, av Bernard, Outremont,QC,H2V1V4
1625, boul Graham, Ville Mont-Royal,QC,H3R1G7
1801, av du Mont-Royal E, Montréal,QC,H2H1J2
7031, ch de la Côte-Saint-Luc, Montréal,QC,H4V1J2
10611, boul Pie-IX, Montréal-Nord,QC,H1H4A3
3461, boul Gouin E, Montréal,QC,H1H1B2
12675, rue Sherbrooke E, Montréal,QC,H1A3V9
2835, av Van Horne, Montréal,QC,H3S1P6
5620, boul Henri-Bourassa E, Montréal-Nord,QC,H1G2T2
1299, av Greene, Westmount,QC,H3Z2A6
22-1155, rue Metcalfe, Montréal,QC,H3B2V7
4817, rue Sherbrooke O, Westmount,QC,H3Z1G6
6951, ch de la Côte-Saint-Luc, Côte-Saint-Luc,QC,H4V1J2
3021, rue Notre-Dame Ouest, Montréal,QC,H4C1N9
610, rue Saint-Jacques O, Montréal,QC,H3C1C7
100-740, boul de la Côte-Vertu, Saint-Laurent,QC,H4L5C8
2099, boul Marcel-Laurin, Saint-Laurent,QC,H4R1K4
4861, avenue Van Horne, Montréal,QC,H3W1J2
4286, rue Jean-Talon E, Saint-Léonard,QC,H1S1J7
4851, av Van Horne, Montréal,QC,H3W1J2
2157, rue Guy, Montréal,QC,H3H2L9
1140, rue Sainte-Catherine O, Montréal,QC,H3B1H7
6510, av Somerled, Montréal,QC,H4V1S8
6051, rue Sherbrooke O, Montréal,QC,H4A1Y2
7945, boul Maurice-Duplessis, Montréal,QC,H1E1M5
1100, rue Sherbrooke O, Montréal,QC,H3A1G7
5701, av de Monkland, Montréal,QC,H4A1E7
5700, ch de la Côte-des-Neiges, Montréal,QC,H3T2A6
1951, rue Beaubien E, Montréal,QC,H2G1M2
5185, ch Queen-Mary, Montréal,QC,H3W1Y1
7155, rue Jean-Talon E, Anjou,QC,H1M3A4
8550, boul Langelier, Saint-Léonard,QC,H1P2Z4
7355, rue Sherbrooke O, Montréal,QC,H4B1S1
5373, boul Henri-Bourassa E, Montréal,QC,H1G2T1
5501, av Westminster, Montréal,QC,H4W2J2
6595, av Somerled, Montréal,QC,H4V1T1
200, boul René-Lévesque O, Montréal,QC,H2Z1X4
1006, rue Sherbrooke O, Montréal,QC,H3A2S2
10-9150, boul de l'Acadie, Montréal,QC,H4N2T2
6025, boul Henri-Bourassa E, Montréal-Nord,QC,H1G2V2
3251, rue Beaubien E, Montréal,QC,H1X1G4
5133, rue Jean-Talon E, Saint-Léonard,QC,H1S1K8
5679, rue Sherbrooke O, Montréal,QC,H4A1W6
1326, avenue Greene, Westmount,QC,H3Z2B1
5035, rue de Verdun, Verdun,QC,H4G1N5
1590, rue Dollard, Lasalle,QC,H8N1T6
5180, ch de la Côte-des-Neiges, Montréal,QC,H3T1X8
3300, boul de la Côte-Vertu, Saint-Laurent,QC,H4R2B7
600, rue Jean-Talon E, Montréal,QC,H2R3A8
50, boul Crémazie O, Montréal,QC,H2P1A2
5272, ch Queen-Mary, Montréal,QC,H3W1X5
101, av Westminster N, Montréal-Ouest,QC,H4X1Z3
1250, boul René-Lévesque O, Montréal,QC,H3B4W8
4245, boul Saint-Laurent, Montréal,QC,H2W1Z4
5615, av Pierre-de Coubertin, Montréal,QC,H1N1R1
7880, Rte Transcanadienne, Saint-Laurent,QC,H4T1A5
630, boul René-Lévesque O, Montréal,QC,H3B1S6
4056, rue Molson, Montréal,QC,H1Y3R7
2400-1800, av McGill Collège, Montréal,QC,H3A3J6
620, boul Saint-Jean, Pointe-Claire,QC,H9R3K2
2480, rue Provost, Lachine,QC,H8S1P9
610, boul Saint-Jean, Pointe-Claire,QC,H9R3K2
141, boul de Mortagne, Boucherville,QC,J4B6G4
279, rue Saint-Charles O, Longueuil,QC,J4H1E4
190, rue Saint-Charles O, Longueuil,QC,J4H1C9
85, rue Saint-Charles Ouest, Longueuil,QC,J4H1C5
43, rue Saint-Charles O, Longueuil,QC,J4H1C5
1, rue Saint-Charles Ouest, Longueuil,QC,J4H1C4
825, rue Saint-Laurent O, Longueuil,QC,J4K2V1
855, rue St-Laurent Ouest, Longueuil,QC,J4K2V1
100-2220, boul Lapinière, Brossard,QC,J4W1M2
720, boul Le Corbusier, Laval,QC,H7N0A8
L033-3035, boul Le Carrefour, Laval,QC,H7T1C8
425, av Victoria, Saint-Lambert,QC,J4P2J1
477, avenue Victoria, Saint-Lambert,QC,J4P2J1
2540, boul Daniel-Johnson, Laval,QC,H7T2S3
500, av Victoria, Saint-Lambert,QC,J4P2J5
572, av Victoria, Saint-Lambert,QC,J4P2J5
899, Boul d'Auteuil, Laval,QC,H7E2C2
700, boulevard Curé-Poirier Ouest, Longueuil,QC,J4J2J2
635, av Victoria, Saint-Lambert,QC,J4P3R4
957, boul d'Auteuil, Laval,QC,H7E5J7
3100, boul de la Concorde E, Duvernay,QC,H7E2B8
3019, boul de la Concorde E, Duvernay,QC,H7E2B5
2068, ch de Chambly, Longueuil,QC,J4J3Y7
2155, boul Roland-Therrien, Longueuil,QC,J4N1P2
2401, boulevard Roland-Therrien, Longueuil,QC,J4N1C5
2495, boul Saint-Martin E, Laval,QC,H7E4X6
53, 45E av, Lachine,QC,H8T2L8
444, boul Curé-Labelle, Laval,QC,H7P4W7
2877, ch de Chambly, Longueuil,QC,J4L1M8
1485, av Victoria, Saint-Lambert,QC,J4R1R5
2, place Laval, Laval,QC,H7N5N6
3355, boul Grande-Allée, Saint-Hubert,QC,J4T2T2
130, boul. de Mortagne, Boucherville,QC,J4B5M7
840, boulevard Marie-Victorin, Longueuil,QC,J4G2H9
5880, boul Robert-Bourassa, Laval,QC,H7E0A5
1000, boul Marie-Victorin, Longueuil,QC,J4G1A1
1600, boul Le Corbusier, Laval,QC,H7S1Y9
451, rue des Migrateurs, Terrebonne,QC,J6V0A8
1001, boul de Montarville, Boucherville,QC,J4B6P5
2140, boul Lapinière, Brossard,QC,J4W1L8
2151, boul Lapinière, Brossard,QC,J4W2T5
2151, boul Lapinière, Brossard,QC,J4W2T5
1070, rue Lionel-Daunais, Boucherville,QC,J4B8R6
1850, rue Panama, Brossard,QC,J4W3C6
1890, boulevard des Laurentides, Vimont,QC,H7M2P9
5045, boulevard Cousineau, Saint-Hubert,QC,J3Y3K7
727, boul Curé-Labelle, Sainte-Rose,QC,H7V2V2
2105, boul Daniel-Johnson, Laval,QC,H7T1H8
2040, boulevard des Laurentides, Laval,QC,H7M2R5
1100, boul Curé-Labelle, Laval,QC,H7V2V5
3090, boul Le carrefour, Laval,QC,H7T2J7
7250, boul Taschereau, Brossard,QC,J4W1M9
1-7250, boul Taschereau O, Brossard,QC,J4W1M9
200-575, ch de Touraine, Boucherville,QC,J4B5E4
2146, boul des Laurentides, Laval,QC,H7M2R5
2165, boul des Laurentides, Laval,QC,H7M4M2
2550, boul Daniel-Johnson, Laval,QC,H7T2L1
5700, Boul Grand Allée, St Hubert,QC,J3Y1B1
2235, boul Roland-Therrien, Longueuil,QC,J4N1P2
4865, boul Notre-Dame, Laval,QC,H7W1V3
4641, boul Samson, Laval,QC,H7W2H5
3000, boul des Laurentides, Vimont,QC,H7K3G5
6702, route Transcanadienne, Pointe-Claire,QC,H9R1C4
910, rue Provost, Lachine,QC,H8S1M9
4114, boul Saint-Martin O, Laval,QC,H7T1C1
5900, boul Cousineau, Saint-Hubert,QC,J3Y7R9
B20-8245, boul Taschereau, Brossard,QC,J4Y1A4
400-8330, boul Taschereau, Brossard,QC,J4X1C2
2665, ch de Chambly, Longueuil,QC,J4L1M3
2400, boulevard Gaetan Boucher, Saint-Hubert,QC,J3Y5B7
2310, boul du Faubourg, Boisbriand,QC,J7H1S3
649, 32e avenue, Lachine,QC,H8T3G6
2942, rue Remembrance, Lachine,QC,H8S1X8
2942, rue Remembrance, Lachine,QC,H8S1X8
2650, rue Victoria, Lachine,QC,H8S1Z3
7171, boul Cousineau, Saint-Hubert,QC,J3Y8N2
4605, boulevard Lapinière, Brossard,QC,J4Z3T5
10-9050, boul Leduc, Brossard,QC,J4Y0E6
1120, autoroute Chomedey O, Laval,QC,H7X4C9
23, boul Samson, Laval,QC,H7X3S5
31, boul Samson, Laval,QC,H7X3S5
560, boul Curé-Labelle, Sainte-Rose,QC,H7L4V6
5-9780, boul Leduc, Brossard,QC,J4Y0B3
1050-430, boul Arthur-Sauvé, Saint-Eustache,QC,J7R6V6
396, boulevard Curé-Labelle, Laval,QC,H7L3X7
333, boul Curé-Labelle, Sainte-Rose,QC,H7L2Z9
1230, boul des Promenades, Saint-Hubert,QC,J3Y5K2
1600, chemin de Saint-Jean, La Prairie,QC,J5R0J1
3149, boulevard Dagenais Ouest, Laval,QC,H7P1T8
1212, boul des Seigneurs, Terrebonne,QC,J6W3W4
601, boul Taschereau, La Prairie,QC,J5R1V5
50, place de la Gabelle Bureau 100, Varennes,QC,J3X2J4
801, boulevard des Seigneurs, Terrebonne,QC,J6W1T5
1100, boul Moody, Terrebonne,QC,J6W3K9
1100, boul Moody, Terrebonne,QC,J6W3K9
29-1185, boul Moody, Terrebonne,QC,J6W3Z5
224, boulevard Sainte-Rose, Laval,QC,H7L1L6
316, av Dorval, Dorval,QC,H9S3H7
1020, boul Taschereau, La Prairie,QC,J5R1W6
625, chemin Bord-Du-Lac, Dorval,QC,H9S2B5
500, boulevard du Fort-Saint-Louis, Boucherville,QC,J4B1S4
274, av Dorval, Dorval,QC,H9S3H3
1950, boul René-Gaultier, Varennes,QC,J3X1P5
30, boul Clairevue O, Saint-Bruno,QC,J3V1P8
235, rue Langlois, Varennes,QC,J3X1R3
1445, rue Roberval, Saint-Bruno,QC,J3V5J1
3075, boul des Sources, Dollard-des-Ormeaux,QC,H9B1Z6
3343P, boul des Sources, Dollard-des-Ormeaux,QC,H9B1Z8
201, boul de l'Industrie, Candiac,QC,J5R6A6
3761, boul Des Sources, Dollard-Des-Ormeaux,QC,H9B2K4
3720, boul des Sources, Dollard-Des-Ormeaux,QC,H9B1Z9
373, boul Adolphe-Chapleau, Bois-des-Fillon,QC,J6Z1H1
1560, rue Montarville, Saint-Bruno,QC,J3V3T7
100, Place Charles-Le Moyne, Longueuil,QC,J4K2T4
4101, boulevard Des Sources, Dollars-des-Ormeaux,QC,H9B0A7
1-115, montée Masson, Mascouche,QC,J7K3B4
4400, boul des Sources, Dollard-des-Ormeaux,QC,H8Y3B7
205, boulevard Labelle, Rosemère,QC,J7A2H3
730, montée des Pionniers, Lachenaie,QC,J6V1N9
105-163, montée Masson, Mascouche,QC,J7K3B4
279, rue Saint-Charles O, Longueuil,QC,J4H1E4
220, Montée Masson, Mascouche,QC,J7K3B5
160, rue Saint-Charles O, Longueuil,QC,J4H1C9
160, rue Saint-Charles O, Longueuil,QC,J4H1C9
258, Montée Masson, Mascouche,QC,J7K3B5
11701, boul de Pierrefonds, Pierrefonds,QC,H9A1A1
22-825, rue Saint-Laurent O, Longueuil,QC,J4K2V1
33, av Donegani, Pointe-Claire,QC,H9R2V7
299, boul Labelle, Rosemère,QC,J7A2H7
8400, rue Saint-Charles, Brossard,QC,J4X0A2
446, montée Masson, Mascouche,QC,J7K2L5
2250, chemin Gascon, Terrebonne,QC,J6X3A1
136-1700, ch du Fer-A-Cheval, Sainte-Julie,QC,J3E1G2
101-121, rue Saint-Pierre, Saint-Constant,QC,J5A2G9
1560, rue Eiffel, Boucherville,QC,J4B5Y1
370, boul Labelle, Rosemère,QC,J7A3R8
2003, boulevard de Rome, Brossard,QC,J4W3K6
210, boulevard Jean-Léman, Candiac,QC,J5R6E6
302-1, rue Provost, Lachine,QC,H8S4H2
130, rue Strasbourg, Candiac,QC,J5R0B4
80, rue Strasbourg, Candiac,QC,J5R0B4
825, montée Masson, Mascouche,QC,J7K3G1
5040, boulevard Gaëtan-Boucher, Saint-Hubert,QC,J3Y7R8
120-6341, aut Transcanadienne, Pointe-Claire,QC,H9R5A5
13135, boul Gouin O, Pierrefonds,QC,H8Z1X1
203, boul Hymus, Pointe-Claire,QC,H9R1E9
6500, route Trans-Canada, Pointe-Claire,QC,H9R0A5
610, boul Saint-Jean, Pointe-Claire,QC,H9R3K2
1400, boulevard de la Grande-Allée, Boisbriand,QC,J7G2Z8
3610, boul Saint-Jean, Dollard-des-Ormeaux,QC,H9G1X1
1101, rang Saint-François, Terrebonne,QC,J6Y0C7
4010, boul Saint-Jean, Dollard-des-Ormeaux,QC,H9G1X1
265A, boul Saint-Jean, Pointe-Claire,QC,H9R3J1
4840, boul Saint-Jean, Pierrefonds,QC,H9H4B2
8, rue Tassé, Sainte-Thérèse,QC,J7E1V3
2505, rue d'Annemasse, Boisbriand,QC,J7H0A3
201, boulevard du Curé-Labelle, Sainte-Thérèse,QC,J7E2X6
2575, rue d'Annemasse, Boisbriand,QC,J7H0A5
185, boul Omer-Marcil, Saint-Jean-Sur-Richelieu,QC,J2W0A3
5060, boul Arthur-Sauvé, Laval,QC,H7R3X1
704, rue des Sureaux, Boucherville,QC,J4B0C8
35, rue Blainville O, Sainte-Thérèse,QC,J7E1X1
2700, rue Jean-Charles-Bonenfant, Boisbriand,QC,J7H1P1
7250, boul Taschereau, Brossard,QC,J4W1M9
4390, boul de la Concorde E, Laval,QC,H7C2R4
477, rue Notre-Dame, Repentigny,QC,J6A2T6
564, av Victoria, Saint-Lambert,QC,J4P2J5
564, av Victoria, Saint-Lambert,QC,J4P2J5
9090, boul Leduc, Brossard,QC,J4Y0E2
17035, boul Brunswick, Kirkland,QC,H9H5G6
61, Boul Des Laurentides, Laval,QC,H7G2S9
5, boul Samson, Laval,QC,H7X3S5
3131, boul de la Concorde E, Laval,QC,H7E4W4
569, rue Principale, Saint-Amable,QC,J0L1N0
125, rue de la Fayette, Repentigny,QC,J6A8K3
500, boul Iberville, Repentigny,QC,J6A6H9
169, boulevard Maple, Châteauguay,QC,J6J3R1
101-515, rue Leclerc, Repentigny,QC,J6A8G9
2068, ch de Chambly, Longueuil,QC,J4J3Y7
1, chemin de la Grande-Côte, Saint-Eustache,QC,J7P5L3
555, rue Ellice, Beauharnois,QC,J6N1X8
250, boul de la Concorde E, Laval,QC,H7G2E4
396, boulevard Curé-Labelle, Laval,QC,H7L4T7
215, boul Taschereau, La Prairie,QC,J5R4H9
230, rue Saint-Charles, Sainte-Thérèse,QC,J7E2B4
276, boul d'Anjou, Châteauguay,QC,J6K1C6
200, boul d'Anjou, Châteauguay,QC,J6K1C5
6250, boul Cousineau, Saint-Hubert,QC,J3Y8X9
455, boulevard Brassard, Chambly,QC,J3L4V6
2867, boul Saint-Charles, Kirkland,QC,H9H3B5
106, Beaurepaire Dr, Beaconsfield,QC,H9W0A1
450, boulevard Taschereau, La Prairie,QC,J5R1V1
179, boul d'Anjou, Châteauguay,QC,J6J2R3
2959, boul Saint-Charles, Kirkland,QC,H9H3B5
76, boul Cartier O, Laval,QC,H7N2H5
139, boul Saint-Jean-Baptiste, Châteauguay,QC,J6K3B1
3064, boul Saint-Charles, Kirkland,QC,H9H3B7
3535, boul Saint-Charles, Kirkland,QC,H9H5B9
3725, boul Saint-Charles, Kirkland,QC,H9H4M2
3662, boul Saint-Charles, Kirkland,QC,H9H3C3
2235, boul Roland-Therrien, Longueuil,QC,J4N1P2
77, boul d'Anjou, Châteauguay,QC,J6J2R1
1700, ch d'Oka, Deux-Montagnes,QC,J7R1M9
1365, Grande Allée, Terrebonne,QC,J6W4K6
500, av Victoria, Saint-Lambert,QC,J4P2J5
367, boul Arthur-Sauvé, Saint-Eustache,QC,J7P2B1
1100, boulevard Taschereau, La Prairie,QC,J5R1W8
269, boulevard Ste-Rose, Laval,QC,H7L1M1
65, rue Principale, Châteauguay,QC,J6K1E9
500, ch des Anciens, Deux-Montagnes,QC,J7R6A7
200-245, boul Saint-Jean-Baptiste, Châteauguay,QC,J6K3C3
10, rue Thérèse-Casgrain, Laval,QC,H7L4N4
2665, ch de Chambly, Longueuil,QC,J4L1M3
99, rue Grignon, Saint-Eustache,QC,J7P4S4
1455, boul de Périgny, Chambly,QC,J3L4K8
780, boul du Curé Labelle, Blainville,QC,J7C2K5
1-319, rue Valmont, Repentigny,QC,J5Y0Y5
1265, ch du Tremblay, Longueuil,QC,J4N0G3
1265, ch du Tremblay, Longueuil,QC,J4N0G3
535, boul Arthur-Sauvé, Saint-Eustache,QC,J7P4X4
259, boul de la Seigneurie, Blainville,QC,J7C4N3
3571, boul Dagenais O, Laval,QC,H7P4X4
306, boul de la Concorde O, Laval,QC,H7N5B2
280, boul de La Seigneurie O, Blainville,QC,J7C5A1
2055, rue Principale, Sainte-Julie,QC,J3E1W1
575, boulevard Arthur-Sauvé, Saint-Eustache,QC,J7P4X5
2877, ch de Chambly, Longueuil,QC,J4L1M8
108-70, rte 132, Delson,QC,J5B0A1
50, montée Gagnon, Bois-des-Filion,QC,J6Z2L1
100-2850, boul des Promenades, Sainte-Marthe-sur-le-Lac,QC,J0N1P0
1649, rue Montarville, Saint-Bruno,QC,J3V3T8
387, rue Laurier, Laval,QC,H7N2P3
387, rue Laurier, Laval,QC,H7N2P3
154-1, Place Laval, Laval,QC,H7N1A1
933, boulevard Armand Frappier, Sainte-Julie,QC,J3E2N2
405, boul Cartier O, Laval,QC,H7N2K8
104-1083, boul du Curé-Labelle, Blainville,QC,J7C3M9
448, boul Beaconsfield, Beaconsfield,QC,H9W4B9
3221, rue Principale, Saint-Jean-Baptiste,QC,J0L2B0
911, Montée des Pionniers, Terrebonne,QC,J6V2H2
100-130, boul de Mortagne, Boucherville,QC,J4B5M7
99, boul des Hauts-Bois, Sainte-Julie,QC,J3E3J9
60, rue du Sacré-Coeur, Charlemagne,QC,J5Z1W5
3626, boul Taschereau, Greenfield Park,QC,J4V2H7
1025, rue Saint-Jean-Baptiste, Beloeil,QC,J3G6R6
182, boulevard Iberville, Repentigny,QC,J6A1Y8
585, av Saint-Charles, Vaudreuil-Dorion,QC,J7V8P9
233, rue Duvernay, Beloeil,QC,J3G2M3
148, boulevard Sainte-Anne, Sainte-Anne-des-Plaines,QC,J0N1H0
693, Saint-Régis, Saint-Isidore,QC,J0L2A0
830, rue Laurier, Beloeil,QC,J3G4K4
1535, boul Saint-Martin Ouest, Laval,QC,H7S1N1
6005, boul Robert-Bourassa, Laval,QC,H7E0A4
1679, boul de l'Avenir, Laval,QC,H7S2N5
140, rue des Saisons, Sainte-Anne-des-Plaines,QC,J0N1H0
1699, boul Le Corbusier, Chomedey,QC,H7S1Z3
280, boul Sir-Wilfrid-Laurier, Mont-Saint-Hilaire,QC,J3H3N7
6, rue Provost, Verchères,QC,J0L2R0
317, boul Brunswick, Pointe-Claire,QC,H9R5M7
650, boul du Fort-Saint-Louis, Boucherville,QC,J4B1S9
650, boul du Fort-Saint-Louis, Boucherville,QC,J4B1S9
45, boul Brunswick, Dollard-des-Ormeaux,QC,H9B1P7
500, rue d'Avaugour, Boucherville,QC,J4B0G6
321, boul Saint-Jean, Pointe-Claire,QC,H9R3J1
401, boulevard du Domaine, Sainte-Thérèse,QC,J7E4S4
2151, boul Lapinière, Brossard,QC,J4W2T5
2151, boul Lapinière, Brossard,QC,J4W2T5
5350, boul des Laurentides, Laval,QC,H7K2J8
3010, chemin de la Rivière-Cachée, Boisbriand,QC,J7H1H9
40, rue Dr Wilfrid-Locat Nord, Saint-Roch-de-L'Achigan,QC,J0K3H0
8, rue Laviolette, Saint-Joseph-du-Lac,QC,J0N1M0
8000, rue Saint-Jacques, Mirabel,QC,J7N2B7
300-1570, rue Ampère, Boucherville,QC,J4B7L4
200-3131, boul Saint-Martin O, Laval,QC,H7T2Z5
3400, boul du Souvenir, Laval,QC,H7V3Z2
15 000, boulevard Pierrefonds, Pierrefonds,QC,H9H4G2
61, boul des Laurentides, Laval,QC,H7G2S9
13845, boul du Curé-Labelle C.P. 1200, Mirabel,QC,J7J1A1
810, rue Notre-Dame, Saint-Rémi,QC,J0L2L0
110, rue de la Fabrique, Saint-Marc-Sur-Richelieu,QC,J0L2E0
3030, boul Le carrefour, Chomedey,QC,H7T2P5
160, boul Omer-Marcil, Saint-Jean-Sur-Richelieu,QC,J2W2V1
3100, boul Le Carrefour, Laval,QC,H7T2K7
2500, boul Daniel-Johnson, Laval,QC,H7T2P6
100-2500, boul Daniel-Johnson, Laval,QC,H7T2P6
115-2500, boul Daniel-Johnson, Laval,QC,H7T2P6
20, rue Principale, Saint-Jaques-le-Mineur,QC,J0J1Z0
100-2525, boul Daniel-Johnson, Laval,QC,H7T1S9
100-2525, boul Daniel-Johnson, Laval,QC,H7T1S9
2165, boul des Laurentides, Laval,QC,H7M4M2
2175, boul des Laurentides, Laval,QC,H7K2J3
Z-515, boulevard Lacombe, Repentigny,QC,J5Z1P5
3770, boul Saint-Martin O, Laval,QC,H7T1B1
5645, boul Grande-Allée, Brossard,QC,J4Z3G3
903, rue Bériault, Longueuil,QC,J4G1X7
10-600, rue Pierre-Caisse, Saint-Jean-Sur-Richelieu,QC,J3A1M1
800-564, voie de la Desserte, Saint-Constant,QC,J5A2S6
76, boul. Cartier, Laval,QC,H7N2H5
991, boul du Séminaire N, Saint-Jean-Sur-Richelieu,QC,J3A1K1
4595, boul Samson, Laval,QC,H7W2H2
4641, boul Samson, Laval,QC,H7W2H5
36, boul Saint-Charles, Beaconsfield,QC,H9W5Z6
480, boul Don-Quichotte, Notre-Dame-de-l'île-Perrot,QC,J7V0J9
110, boul Don-Quichotte, L'île-Perrot,QC,J7V6L7
1-100, boul Don-Quichotte, L'Île-Perrot,QC,J7V6L7
8200, boul Taschereau, Brossard,QC,J4X2S6
145-25, boul Don-Quichotte, L'île-Perrot,QC,J7V7X4
385, rue Ellice, Beauharnois,QC,J6N1X5
640, rue Dorchester, Saint-Jean-Sur-Richelieu,QC,J3B5A4
296, chemin des Patriotes, Saint-Mathias-sur-Richelieu,QC,J3L6A6
6250, boul Cousineau, Saint-Hubert,QC,J3Y8X9
915, 12e avenue, Saint-Lin-Laurentides,QC,J5M2W1
14, rue de l'Union, Saint-Charles-sur-Richelieu,QC,J0H2G0
447, rue Leclerc, Repentigny,QC,J6A8J4
2650, rue Victoria, Lachine,QC,H8S1Z3
200-4255, boul Lapinière, Brossard,QC,J4Z0C7
47-2801, boul des Promenades, Sainte-Marthe-Sur-Le-Lac,QC,J0N1P0
101, boul Cardinal-Léger, Pincourt,QC,J7V3Y3
117, boulevard Cardinal-Léger, Pincourt,QC,J7V7A8
579, 20e Av, Deux-Montagnes,QC,J7R6B2
920, boulevard Iberville, Repentigny,QC,J5Y2P9
25, rue Saint-Jacques, Saint-Jean-Sur-Richelieu,QC,J3B2N2
135, rue Richelieu, Saint-Jean-Sur-Richelieu,QC,J3B6X7
5800, boul des Laurentides, Laval,QC,H7H1N1
2, Place Laval, Laval,QC,H7N5N6
440, autoroute Chomedey, Laval,QC,H7X3S9
245, boulevard Yvon-l'Heureux Nord, Beloeil,QC,J3G5R8
5, boul Samson, Laval,QC,H7X3S5
5, boul Samson, Laval,QC,H7X3S5
201, boul Curé-Labelle, Laval,QC,H7V2R9
53, 45E av, Lachine,QC,H8T2L8
20, 45E av, Lachine,QC,H8T2L7
6, 45E av, Lachine,QC,H8T2L7
120-9160, boul Leduc, Brossard,QC,J4Y0L2
50, boul Taschereau, La Prairie,QC,J5R4V3
50, boul Taschereau, La Prairie,QC,J5R4V3
3253, chemin de Chambly, Longueuil,QC,J4L4K5
47, boul Samson, Laval,QC,H7X3R8
170, boulevard Harwood, Vaudreuil-Dorion,QC,J7V1Y2
455, avenue Saint-Charles, Vaudreuil-Dorion,QC,J7V2N4
40, boul de la Cité-Des-Jeunes, Vaudreuil-Dorion,QC,J7V9L5
207A, rue Principale, Saint-Urbain-Premier,QC,J0S1Y0
580, av Saint-Charles, Vaudreuil-Dorion,QC,J7V8H2
663, boulevard Saint-Antoine, Saint-Jérôme,QC,J7Z3B8
82, rue Principale, Saint-Esprit,QC,J0K2L0
81, rue Saint-Isidore, Saint-Esprit,QC,J0K2L0
511, boul des Laurentides, Saint-Jérôme,QC,J7Z4L9
393, rue Jacques-Cartier Sud, Saint-Jean-Sur-Richelieu,QC,J3B7T1
100, rue Notre-Dame, Oka,QC,J0N1E0
100, place du Curé-Labelle, Saint-Jérôme,QC,J7Z1Z6
01-295, rue Saint-Jovite, Saint-Jérôme,QC,J7Z7B2
9055, rue St-Étienne, Mirabel,QC,J7N2P5
780, boul du Curé-Labelle, Blainville,QC,J7C2K5
1080, boul des Seigneurs, Terrebonne,QC,J6W3W4
1100, boul Moody, Terrebonne,QC,J6W3K9
226, boul Sainte-Rose, Sainte-Rose,QC,H7L1L6
316, av Dorval, Dorval,QC,H9S3H7
500, boul du Fort-Saint-Louis, Boucherville,QC,J4B1S4
724, boulevard St-Jean-Baptiste, Mercier,QC,J6R0B2
274, av Dorval, Dorval,QC,H9S3H3
1679, boul de l'Avenir, Laval,QC,H7S2N5
3075, boul Cartier Ouest, Laval,QC,H7V1J4
269, boul Sainte-Rose, Laval,QC,H7L0A2
185, av Dorval, Dorval,QC,Getdirections
185, av Dorval, Dorval,QC,H9S5J9
1950, boul René-Gaultier, Varennes,QC,J3X1P5
1950, boul René-Gaultier, Varennes,QC,J3X1P5
127, boul Sir-Wilfrid-Laurier, Mont-Saint-Hilaire,QC,J3H3N3
2020, boul René-Gaultier, Varennes,QC,J3X1N9
2020, boul René-Gaultier, Varennes,QC,J3X1N9
1001, boul de Montarville, Boucherville,QC,J4B6P5
650, boul du Fort-Saint-Louis, Boucherville,QC,J4B1S9
1071, boul de Montarville, Boucherville,QC,J4B6R2
3571, boul Dagenais O, Sainte-Rose,QC,H7P4X4
7, rue Commercial Centre, Roxboro,QC,H8Y2N9
322, montée des Pionniers, Terrebonne,QC,J6V1S6
3075, boul des Sources, Dollard-des-Ormeaux,QC,H9B1Z6
3343P, boul des Sources, Dollard-des-Ormeaux,QC,H9B1Z8
80, rue Beauchemin, Saint-Mathieu-de-Beloeil,QC,J3G0B5
6-840, boul de l'Ange-Gardien N, L'Assomption,QC,J5W1P6
3550, boul des Sources, Dollard-des-Ormeaux,QC,H9B1Z9
1560, rue Montarville, Saint-Bruno,QC,J3V3T7
210, rue Sainte-Catherine, Saint-Constant,QC,J5A2J4
1649, rue Montarville, Saint-Bruno,QC,J3V3T8
1850, rue Panama, Brossard,QC,J4W3C6
4400, boul des Sources, Dollard-des-Ormeaux,QC,H8Y3B7
212 B, boul Labelle, Rosemère,QC,J7A2H4
218, boul Labelle, Rosemère,QC,J7A2H4
1033, boul Armand-Frappier, Sainte-Julie,QC,J3E3R5
1033, boul Armand-Frappier, Sainte-Julie,QC,J3E3R5
1550, rue Ampère, Boucherville,QC,J4B7L4
1141, Montée des Pionniers, Terrebonne,QC,J6V0E1
100-1000, Montée des Pionniers, Terrebonne,QC,J6V1S8
3131, boul Saint-Martin Ouest, Laval,QC,H7T2Z5
220, Montée Masson, Mascouche,QC,J7K3B5
933A, boul Armand-Frappier, Sainte-Julie,QC,J3E2N2
41, boul Georges-Gagné S, Delson,QC,J5B2E5
41, boul Georges-Gagné S, Delson,QC,J5B2E5
364, rue de l'Académie, Rosemère,QC,J7A1Z1
11701, boul de Pierrefonds, Roxboro,QC,H9A1A1
312, boul de L'Ange-Gardien, L'Assomption,QC,J5W1S3
33, av Donegani, Pointe-Claire,QC,H9R2V7
290, boul l'Ange-Gardien, L'Assomption,QC,J5W1S1
3030, boul Le carrefour, Laval,QC,H7T2P5
2135, ch Gascon, Terrebonne,QC,J6X4H2
2135, ch Gascon, Terrebonne,QC,J6X4H2
2135, ch Gascon, Terrebonne,QC,J6X4H2
1750, ch du Fer-A-Cheval, Sainte-Julie,ON,J3E3J9
480, montée Masson, Mascouche,QC,J7K2L5
101-121, rue Saint-Pierre, Saint-Constant,QC,J5A2G9
93, rue Sainte Anne, Sainte-Anne-De-Bellevue,QC,H9X1L9
165, rue Notre-Dame, Repentigny,QC,J6A0A8
95, boul de Gaulle, Lorraine,QC,J6Z3R8
575, boul Arthur-Sauvé, Saint-Eustache,QC,J7P4X5
131, rue Amireault, L'Épiphanie,QC,J5X2T2
2175, boul des Laurentides, Laval,QC,H7K2J3
2550, boul Daniel-Johnson, Laval,QC,H7T2L1
3770, boul Saint-Martin O, Laval,QC,H7T1B1
111-890, rue Notre-Dame, Saint-Sulpice,QC,J5W3W5
4265, boul Sainte-Rose, Laval-West,QC,H7R1V5
75, boul des Châteaux, Blainville,QC,J7B2A4
302-75, boul des Châteaux, Blainville,QC,J7B2A4
110-215, boul Jean-Léman, Candiac,QC,J5R6Z8
110-215, boul Jean-Léman, Candiac,QC,J5R6Z8
1005, boulevard du Séminaire Nord, Saint-Jean-Sur-Richelieu,QC,J3A1R7
2785, av Claude-Léveillée, Terrebonne,QC,J6X4S8
2785, boul des Entreprises, Terrebonne,QC,J6X4J9
938, boul de la Grande-Allée, Boisbriand,QC,J7G1W5
938, boul de la Grande-Allée, Boisbriand,QC,J7G1W5
13135, boul Gouin O, Pierrefonds,QC,H8Z1X1
130-6500, aut Transcanadienne, Pointe-Claire,QC,H9R0A5
1765, rue Principale, Saint-Michel,QC,J0L2J0
5959, boul Cousineau, Saint-Hubert,QC,J3Y7P5
610, boul Saint-Jean, Pointe-Claire,QC,H9R3K2
4791, boul Dagenais O, Laval,QC,H7R1L7
1000, boul Saint-Jean, Pointe-Claire,QC,H9R5P1
317, boul Brunswick, Pointe-Claire,QC,H9R5M7
3610, boul Saint-Jean, Dollard-des-Ormeaux,QC,H9G1X1
4865, boul Notre-Dame, Laval,QC,H7W1V3
930, 37E av, Lachine,QC,H8T2B4
321, boul Saint-Jean, Pointe-Claire,QC,H9R3J1
100-2210, boul du Millénaire, Saint-Bruno,QC,J3N1T8
4319, boul Saint-Jean, Dollard-des-Ormeaux,QC,H9H2A4
3000, rue Cours Le Corbusier, Boisbriand,QC,J7G3E8
206, boul du Curé-Labelle, Sainte-Thérèse,QC,J7E2X7
206, boul du Curé-Labelle, Sainte-Thérèse,QC,J7E2X7
9155, boul Taschereau, Brossard,QC,J4Y3B8
200-4255, boul Lapinière, Brossard,QC,J4Z0C7
211, rue Mayrand, Saint-Jean-Sur-Richelieu,QC,J3B3L1
170, rue Richelieu, Saint-Jean-Sur-Richelieu,QC,J3B6X4
100-45, Montée Robert, Saint-Basile-Le-Grand,QC,J3N1L7
4605, boul Lapinière, Brossard,QC,J4Z3T5
14965, boul de Pierrefonds, Pierrefonds,QC,H9H4M5
15000, boul de Pierrefonds, Pierrefonds,QC,H9H4G2
9140, boul Leduc, Brossard,QC,J4Y0L2
201, boul Curé-Labelle, Laval,QC,H7V2R9
500, boul Iberville, Repentigny,QC,J6A6H9
500, boul Iberville, Repentigny,QC,J6A6H9
23, boul Samson, Laval,QC,H7X3S5
1117, boul de Périgny, Chambly,QC,J3L1W7
47, boul Samson, Laval,QC,H7X3R8
2867, boul Saint-Charles, Kirkland,QC,H9H3B5
450, boul Taschereau, La Prairie,QC,J5R1V1
2800, boul Saint-Charles, Kirkland,QC,H9H3B6
2959, boul Saint-Charles, Pointe-Claire,QC,H9H3B5
150-5333, boul Laurier, Terrebonne,QC,J7M1W1
101-3535, boul Saint-Charles, Kirkland,QC,H9H5B9
99, boul d'Anjou, Châteauguay,QC,J6J2R2
601, boul Taschereau, La Prairie,QC,J5R1V5
3662, boul Saint-Charles, Kirkland,QC,H9H3C3
77, boul d'Anjou, Châteauguay,QC,J6J2R1
1040, rue St-Simon, Sainte-Madeleine,QC,J0H1S0
3210, boulevard de la Gare, Vaudreuil-Dorion,QC,J7V8W5
16, rue Marie-Rose, Saint-Antoine-sur-Richelieu,QC,J0L1R0
226, boul Sainte-Rose, Laval,QC,H7L1L6
2001, rue Saint-Régis, Dollard-des-Ormeaux,QC,H9B2M9
1117, boul de Périgny, Chambly,QC,J3L1W7
1117, boul de Périgny, Chambly,QC,J3L1W7
430, boul Arthur-Sauvé, Saint-Eustache,QC,J7R6V6
1430, rue Hocquart, Saint-Bruno,QC,J3V6E1
319, rue Valmont, Repentigny,QC,J5Y0Y5
287, Montée des Pionniers, Terrebonne,QC,J6V1H4
101-305, boul de la Seigneurie O, Blainville,QC,J7C0E6
1452, rue Roberval, Saint-Bruno,QC,J3V5J2
735, rue Gadbois, Saint-Jean-sur-Richelieu,QC,J3A0A1
300-370, boul de la Seigneurie O, Blainville,QC,J7C5A1
108-70, 132 Rte, Delson,QC,J5B0A1
2703, boul des Promenades, Deux-Montagnes,QC,J7R0A6
318-1868, boul des Sources, Pointe-Claire,QC,H9R5R2
761, boul Arthur-Sauvé, Saint-Eustache,QC,J7R4K3
761, boul Arthur-Sauvé, Saint-Eustache,QC,J7R4K3
210, rue Sainte-Catherine, Saint-Constant,QC,J5A2J4
1033, boul Armand-Frappier, Sainte-Julie,QC,J3E3R5
245, boul Saint-Jean-Baptiste, Châteauguay,QC,J6K3C3
100-1124, boul Iberville, Repentigny,QC,J5Y3M6
100-1124, boul Iberville, Le Gardeur,QC,J5Y3M6
180, boul Sir-Wilfrid-Laurier, Beloeil,QC,J3G4G7
180, boul Sir-Wilfried Laurier, Beloeil,QC,J3G4G7
165, rue Notre-Dame, Le Gardeur,QC,J6A0A8
330, boul Sir-Wilfrid-Laurier, Beloeil,QC,J3G4G7
600, boul Sir-Wilfrid-Laurier, Beloeil,QC,J3G4J2
724, boul Saint-Jean-Baptiste, Mercier,QC,J6R0B2
280, rue Serge-Pépin, Beloeil,QC,J3G0C3
127, boul Sir-Wilfrid-Laurier, Mont-Saint-Hilaire,QC,J3H3N3
1, boulevard du Frère-André, Mont-Saint-Grégoire,QC,J0J1K0
189, boul Hymus, Pointe-Claire,QC,H9R1E9
477, boul Ste-Anne, Sainte Anne-des-Plaines,QC,J0N1H0
317, boul Brunswick, Pointe-Claire,QC,H9R5M7
330, boul Sir-Wilfrid-Laurier, Mont-Saint-Hilaire,QC,J3H3N9
440, boul Sir-Wilfrid-Laurier, Mont-Saint-Hilaire,QC,J3H3N9
265A, boul Saint-Jean, Pointe-Claire,QC,H9R3J1
3000, rue Cours Le Corbusier, Boisbriand,QC,J7G3E8
310, boul St-Luc, Saint-Jean-Sur-Richelieu,QC,J2W2A3
4840, boul Saint-Jean, Sainte-Geneviève,QC,H9H4B2
21, ch Principale, Saint-Joseph-du-Lac,QC,J0N1M0
3010, Ch Rivière-Cachée, Boisbriand,QC,J7H1H9
13675, boul Curé-Labelle, Sainte-Thérèse,QC,J7J1L2
14667, rue Lirette, Pierrefonds,QC,H9H4X5
312, boul de l'Ange-Gardien, L'Assomption,QC,J5W1S3
830, rue Notre-Dame, Saint-Remi,QC,J0L2L0
290, boul de l'Ange-Gardien, L'Assomption,QC,J5W1S1
101-515, rue Leclerc, Repentigny,QC,J6A8G9
20, rue Principale RR 1, St-Jac-Le-Min,QC,J0J1Z0
2310, boul du Faubourg, Boisbriand,QC,J7H1S3
100-821, boul de l'Ange-Gardien N, L'Assomption,QC,J5W1P8
100-821, boul de l'Ange-Gardien N, L'Assomption,QC,J5W1P8
409, boul Grand, L'Île-Perrôt,QC,J7V4X3
60, boul Don-Quichotte, L'île-Perrot,QC,J7V6L7
385, rue Ellice, Beauharnois,QC,J6N1X5
491, rue Sainte-Marie, Marieville,QC,J3M1M4
465, rue Ellice, Beauharnois,QC,J6N1X6
20, rue Principale RR 1, St-Jacques-Le-Mineur,QC,J0J1Z0
400, boul du Séminaire N, Saint-Jean-Sur-Richelieu,QC,J3B5L2
2-305, rue St-Joseph, Sainte-Martine,QC,J0S1V0
1086, rue Saint-Isidore, Saint-Lin-Laurentides,QC,J5M2V5
101, boul Cardinal-Léger, Pincourt,QC,J7V3Y3
101, boul Cardinal-Léger, Pincourt,QC,J7V3Y3
170, rue Richelieu, Saint-Jean-Sur-Richelieu,QC,J3B6X4
170, rue Richelieu, Saint-Jean,QC,J3B6X4
1070, boul. du Curé-Labelle, Blainville,QC,J7C2M7
1099, boul du Curé-Labelle, Blainville,QC,J7C2M2
127, boul Sir-Wilfrid-Laurier, Beloeil,QC,J3G4G6
831, Rte Marie-Victorin RR 1, Sorel-Tracy,QC,J3R1L1
8000, rue Saint-Jacques, Mirabel,QC,J7N2B7
605, rue Pierre-Caisse, Saint-Jean,QC,J3A1P1
480, boul Don-Quichotte, Notre-Dame-de-l'île-Perrot,QC,J7V0J9
245, boul Harwood, Vaudreuil-Dorion,QC,J7V1Y3
245, boul Harwood, Vaudreuil-Dorion,QC,J7V1Y3
40, boul de la Cité-des-Jeunes, Vaudreuil-Dorion,QC,J7V9L5
40, boul de la Cité-des-Jeunes, Vaudreuil-Dorion,QC,J7V9L5
580, av Saint-Charles, Vaudreuil-Dorion,QC,J7V8H2
378, boul Harwood, Vaudreuil-Dorion,QC,J7V7H4
378, boul Harwood, Vaudreuil-Dorion,QC,J7V7H4
3210, boul de la Gare, Vaudreuil-Dorion,QC,J7V8W5
8940, boul Viau, Saint-Léonard,QC,H1R2V3
977, rue Sainte-Catherine O, Montréal,QC,H3B4W3
1656, rue Sherbrooke O, Montréal,QC,H3H1C9
38, Place du Commerce, Verdun,QC,H3E1T8
5, Place Ville-Marie, Montréal,QC,H3B2G2
2500, boul Daniel-Johnson, Laval,QC,H7T2P6
2500, boul Daniel-Johnson, Laval,QC,H7T2P6
712, rue Claude-de Ramezay, Marieville,QC,J3M1G1
755, boul Saint-Jean, Pointe-Claire,QC,H9R5M9
1, av Holiday, Pointe-Claire,QC,H9R5N3
3535, boul Saint-Charles, Kirkland,QC,H9H5B9
205, boul Sir-Wilfrid-Laurier, Beloeil,QC,J3G4G8
712, rue Claude-de Ramezay, Marieville,QC,J3M1G1
