streetnum,streetname,city,province,postalcode
1954, boul de Maisonneuve E, Montréal,QC,H2L1Z1
31175, rue Ontario E, Montréal,QC,H2L1R3
4554, rue Jean-Talon O, Montréal,QC,H3N1R5
56001, av Victoria, Montréal,QC,H3W2R9
6504, rue Beaubien E, Montréal,QC,H2S1S5
1590, boul Saint-Jean-Baptiste, Pointe-aux-Trembles,QC,H1B4A4
5327, rue Sherbrooke O, Montréal,QC,H4A1V2
4612, rue Wellington, Verdun,QC,H4G1W9
12285, boul Laurentien, Montréal,QC,H4K1N5
3201, rue Ontario E, Montréal,QC,H1W1P3
1100, rue Ontario E, Montréal,QC,H2L1R1
3880, rue Sainte-Catherine E, Montréal,QC,H1W2G4
11859, boul Langelier, Montréal-Nord,QC,H1G3M4
157, rue Sainte-Catherine E, Montréal,QC,H2X1K8
1393, av Dollard, Lasalle,QC,H8N1T3
7604, rue Saint-Hubert, Montréal,QC,H2R2N6
3708, rue Ontario E, Montréal,QC,H1W1R9
6238, ch de la Côte-des-Neiges, Montréal,QC,H3S2A1
3860, boul Saint-Laurent, Montréal,QC,H2W1Y2
8690, av Chaumont, Anjou,QC,H1K1N6
6320, rue Sherbrooke E, Montréal,QC,H1N1C1
2024, av du Mont-Royal E, Montréal,QC,H2H1J6
600, ave Atwater, Montréal,QC,H4C2G6
6287, rue Sherbrooke E, Montréal,QC,H1N1C3
3341, rue Jean-Talon E, Montréal,QC,H2A1W6
5327, rue Sherbrooke O, Montréal,QC,H4A1V2
1163, rue Ontario E, Montréal,QC,H2L1R3
2307, av Bourbonnière, Montréal,QC,H1W3P4
3966, rue Ontario E, Montréal,QC,H1W1S9
6217, boul Léger, Montréal-Nord,QC,H1G6K8
3255, boul Henri-Bourassa E, Montréal-Nord,QC,H1H1H3
6065, boul Henri-Bourassa E, Montréal-Nord,QC,H1G2V2
9002, boul Saint-Michel, Montréal,QC,H1Z3G4
2803, rue Masson, Montréal,QC,H1Y1W8
6524, av Papineau, Montréal,QC,H2G2X2
3639, rue Wellington, Verdun,QC,H4G1T9
4578, rue Sainte-Catherine E, Montréal,QC,H1V1Y7
1255, rue du Square-Phillips, Montréal,QC,H3B3G1
2747, rue Masson, Montréal,QC,H1Y1W6
6456, boul Saint-Laurent, Montréal,QC,H2S3C4
6217, boul Léger, Montréal-Nord,QC,H1G6K8
3641, rue Ontario E, Montréal,QC,H1W1R8
10823, boul Pie-IX, Montréal-Nord,QC,H1H4A9
2538, rue Bélanger, Montréal,QC,H1Y1A1
4355, rue Wellington, Verdun,QC,H4G1W3
3319, rue Jean-Talon E, Montréal,QC,H2A1W6
7603, rue Saint-Hubert, Montréal,QC,H2R2N7
5216, ch Queen-Mary, Montréal,QC,H3W1X5
3757, rue Notre-Dame O, Montréal,QC,H4C1P8
8921, boul Pie-IX, Montréal,QC,H1Z3V3
5367, boul Henri-Bourassa E, Montréal-Nord,QC,H1G2T1
8670, rue Hochelaga, Montréal,QC,H1L2M6
520, boul Henri-Bourassa E, Montréal,QC,H3L1C6
13660, rue Sherbrooke E, Pointe-Aux-Trembles,QC,H1A4B2
6589, boul Monk, Montréal,QC,H4E3J2
5486, boul Henri-Bourassa E, Montréal-Nord,QC,H1G2S9
9101, boul Pie-IX, Montréal,QC,H1Z3V8
5252, rue Jean-Talon E, Saint-Léonard,QC,H1S1L1
3386, boul Taschereau, Greenfield Park,QC,J4V2H7
